M2 PATHFINDER           
1 45727U 20037E   26204.08863179  .00002397  00000+0  17405-3 0  9993
2 45727  97.8144  35.7270 0012203  37.2846 322.9225 15.04815314330892
NETSAT-4                
1 46504U 20068U   26204.01860722  .00020969  00000+0  44656-3 0  9998
2 46504  97.8610 215.1699 0005710 167.1135 193.0259 15.44960693321307
NETSAT-3                
1 46505U 20068V   26203.92216514  .00021215  00000+0  46971-3 0  9999
2 46505  97.8666 213.2389 0004759 181.9495 178.1734 15.43812094321198
NETSAT-1                
1 46506U 20068W   26203.98822065  .00013630  00000+0  39886-3 0  9999
2 46506  97.8765 207.2088 0003068 219.8365 140.2652 15.35381572320794
NETSAT-2                
1 46507U 20068X   26204.00519021  .00026134  00000+0  51093-3 0  9996
2 46507  97.8624 215.1901 0003280 179.0194 181.1062 15.47428781321274
GREENCUBE (IO-117)      
1 53109U 22080E   26203.66940058 -.00000003  00000+0  00000+0 0  9993
2 53109  70.1381 285.9076 0009327 282.2706  77.6909  6.42583354 94343
SITRO-AIS 5 (KATYS)     
1 57176U 23091L   26204.24052654  .00012006  00000+0  41280-3 0  9999
2 57176  97.5041 268.4979 0009833 342.8743  17.2164 15.30197549169857
SITRO-AIS 6 (CHIRKIN)   
1 57192U 23091AC  26204.30419615  .00009752  00000+0  37524-3 0  9998
2 57192  97.5050 267.4861 0010336 347.4733  12.6247 15.26547774169792
SITRO-AIS 8 (ANOKHIN)   
1 57193U 23091AD  26204.25812352  .00013993  00000+0  44046-3 0  9997
2 57193  97.5036 270.2551 0008736 337.2459  22.8395 15.33015950169979
SITRO-AIS 7 (FARTUSHNIY)
1 57194U 23091AE  26204.24936415  .00010301  00000+0  40014-3 0  9995
2 57194  97.5044 267.2367 0010315 348.9319  11.1690 15.26218306169779
SITRO-AIS 10 (BURDAEV)  
1 57199U 23091AK  26204.26362414  .00020385  00000+0  51451-3 0  9994
2 57199  97.5061 275.6981 0004431 303.8740  56.2083 15.39862932170310
SITRO-AIS 9 (SHCHUKIN)  
1 57201U 23091AM  26204.30186684  .00019898  00000+0  51092-3 0  9994
2 57201  97.5059 275.4381 0004671 304.4571  55.6233 15.39341504170304
SITRO-AIS 12 (SMIRENNIY)
1 57204U 23091AQ  26204.22060352  .00021231  00000+0  53970-3 0  9992
2 57204  97.5072 275.8449 0004360 296.3792  63.7006 15.39636512170315
SITRO-AIS 11 (SHEFFER)  
1 57208U 23091AU  26204.28876866  .00020886  00000+0  52318-3 0  9997
2 57208  97.5071 276.1845 0004307 294.8731  65.2067 15.40089842170346
SITRO-AIS 25            
1 59066U 24039R   26204.28609547  .00003827  00000+0  29799-3 0  9997
2 59066  95.3885 259.8979 0143622 200.9706 158.5594 14.93677692130114
SITRO-AIS 26            
1 59067U 24039S   26204.29246084  .00004135  00000+0  32328-3 0  9997
2 59067  95.3886 259.7923 0143932 201.5505 157.9625 14.93468253130100
SITRO-AIS 27            
1 59068U 24039T   26204.31949434  .00004101  00000+0  31781-3 0  9995
2 59068  95.3896 260.0996 0142952 199.9378 159.6229 14.93899746130133
SITRO-AIS 28            
1 59071U 24039U   26204.29612961  .00004462  00000+0  34527-3 0  9999
2 59071  95.3890 260.1327 0142923 199.8717 159.6909 14.93928751130138
GRBBETA                 
1 60237U 24128C   26204.12269231  .00003245  00000+0  22788-3 0  9998
2 60237  61.9898  90.1657 0035998 142.3680 217.9942 15.06847809111686
OOV-CUBE (TUBSAT-30)    
1 60240U 24128F   26204.18460515  .00001732  00000+0  14199-3 0  9992
2 60240  61.9942 100.0399 0040077 141.8645 218.5295 15.02898344111520
ROBUSTA-3A (MEDITERRAN*)
1 60243U 24128J   26204.24656780  .00007578  00000+0  44365-3 0  9995
2 60243  61.9864  80.6868 0036892 135.6649 224.7412 15.12071134111874
LASARSAT                
1 62391U 24247Q   26203.67494438  .00037711  00000+0  69745-3 0  9990
2 62391  44.9745  62.4735 0008603 212.5816 147.4545 15.48423365 88811
CROCUBE                 
1 62394U 24247T   26203.94787493  .00048107  00000+0  81915-3 0  9993
2 62394  44.9710  57.6351 0008728 220.4792 139.5451 15.50668241 88898
FORESAIL-1 PRIME        
1 66778U 25276DS  26204.23117181  .00004064  00000+0  19751-3 0  9993
2 66778  97.4185 276.8460 0002247  25.0792 335.0551 15.18986431 35874
KNACKSAT-2              
1 67683U 98067XZ  26204.25230709  .00054830  00000+0  59136-3 0  9998
2 67683  51.6273 112.6377 0007453 354.3723   5.7186 15.63087127 25913
