OBJECT_NAME,OBJECT_ID,EPOCH,MEAN_MOTION,ECCENTRICITY,INCLINATION,RA_OF_ASC_NODE,ARG_OF_PERICENTER,MEAN_ANOMALY,EPHEMERIS_TYPE,CLASSIFICATION_TYPE,NORAD_CAT_ID,ELEMENT_SET_NO,REV_AT_EPOCH,BSTAR,MEAN_MOTION_DOT,MEAN_MOTION_DDOT
M2 PATHFINDER,2020-037E,2026-07-23T02:07:37.786656,15.04815314,.00122038,97.8144,35.7270,37.2846,322.9225,0,U,45727,999,33089,.17405258E-3,.2397E-4,0
NETSAT-4,2020-068U,2026-07-23T00:26:47.663808,15.44960693,.00057101,97.8610,215.1699,167.1135,193.0259,0,U,46504,999,32130,.44655502E-3,.20969E-3,0
NETSAT-3,2020-068V,2026-07-22T22:07:55.068096,15.43812094,.00047594,97.8666,213.2389,181.9495,178.1734,0,U,46505,999,32119,.46970812E-3,.21215E-3,0
NETSAT-1,2020-068W,2026-07-22T23:43:02.264160,15.35381572,.00030687,97.8765,207.2088,219.8365,140.2652,0,U,46506,999,32079,.39885869E-3,.1363E-3,0
NETSAT-2,2020-068X,2026-07-23T00:07:28.434144,15.47428781,.00032804,97.8624,215.1901,179.0194,181.1062,0,U,46507,999,32127,.51092552E-3,.26134E-3,0
GREENCUBE (IO-117),2022-080E,2026-07-22T16:03:56.210112,6.42583354,.00093274,70.1381,285.9076,282.2706,77.6909,0,U,53109,999,9434,0,-.3E-7,0
SITRO-AIS 5 (KATYS),2023-091L,2026-07-23T05:46:21.493056,15.30197549,.00098334,97.5041,268.4979,342.8743,17.2164,0,U,57176,999,16985,.41280099E-3,.12006E-3,0
SITRO-AIS 6 (CHIRKIN),2023-091AC,2026-07-23T07:18:02.547360,15.26547774,.00103369,97.5050,267.4861,347.4733,12.6247,0,U,57192,999,16979,.37524472E-3,.9752E-4,0
SITRO-AIS 8 (ANOKHIN),2023-091AD,2026-07-23T06:11:41.872128,15.33015950,.00087369,97.5036,270.2551,337.2459,22.8395,0,U,57193,999,16997,.44046104E-3,.13993E-3,0
SITRO-AIS 7 (FARTUSHNIY),2023-091AE,2026-07-23T05:59:05.062560,15.26218306,.00103159,97.5044,267.2367,348.9319,11.1690,0,U,57194,999,16977,.40013579E-3,.10301E-3,0
SITRO-AIS 10 (BURDAEV),2023-091AK,2026-07-23T06:19:37.125696,15.39862932,.00044315,97.5061,275.6981,303.8740,56.2083,0,U,57199,999,17031,.51450582E-3,.20385E-3,0
SITRO-AIS 9 (SHCHUKIN),2023-091AM,2026-07-23T07:14:41.294976,15.39341504,.0004671,97.5059,275.4381,304.4571,55.6233,0,U,57201,999,17030,.51092481E-3,.19898E-3,0
SITRO-AIS 12 (SMIRENNIY),2023-091AQ,2026-07-23T05:17:40.144128,15.39636512,.00043607,97.5072,275.8449,296.3792,63.7006,0,U,57204,999,17031,.53969694E-3,.21231E-3,0
SITRO-AIS 11 (SHEFFER),2023-091AU,2026-07-23T06:55:49.612224,15.40089842,.00043076,97.5071,276.1845,294.8731,65.2067,0,U,57208,999,17034,.52317732E-3,.20886E-3,0
SITRO-AIS 25,2024-039R,2026-07-23T06:51:58.648608,14.93677692,.01436222,95.3885,259.8979,200.9706,158.5594,0,U,59066,999,13011,.29798741E-3,.3827E-4,0
SITRO-AIS 26,2024-039S,2026-07-23T07:01:08.616576,14.93468253,.01439322,95.3886,259.7923,201.5505,157.9625,0,U,59067,999,13010,.32327594E-3,.4135E-4,0
SITRO-AIS 27,2024-039T,2026-07-23T07:40:04.310976,14.93899746,.01429522,95.3896,260.0996,199.9378,159.6229,0,U,59068,999,13013,.31780904E-3,.4101E-4,0
SITRO-AIS 28,2024-039U,2026-07-23T07:06:25.598304,14.93928751,.01429237,95.3890,260.1327,199.8717,159.6909,0,U,59071,999,13013,.34527195E-3,.4462E-4,0
GRBBETA,2024-128C,2026-07-23T02:56:40.615584,15.06847809,.00359982,61.9898,90.1657,142.3680,217.9942,0,U,60237,999,11168,.22788353E-3,.3245E-4,0
OOV-CUBE (TUBSAT-30),2024-128F,2026-07-23T04:25:49.884960,15.02898344,.00400777,61.9942,100.0399,141.8645,218.5295,0,U,60240,999,11152,.14199344E-3,.1732E-4,0
ROBUSTA-3A (MEDITERRANEE),2024-128J,2026-07-23T05:55:03.457920,15.12071134,.00368927,61.9864,80.6868,135.6649,224.7412,0,U,60243,999,11187,.44365123E-3,.7578E-4,0
LASARSAT,2024-247Q,2026-07-22T16:11:55.194432,15.48423365,.00086031,44.9745,62.4735,212.5816,147.4545,0,U,62391,999,8881,.69745167E-3,.37711E-3,0
CROCUBE,2024-247T,2026-07-22T22:44:56.393952,15.50668241,.0008728,44.9710,57.6351,220.4792,139.5451,0,U,62394,999,8889,.81914862E-3,.48107E-3,0
FORESAIL-1 PRIME,2025-276DS,2026-07-23T05:32:53.244384,15.18986431,.00022474,97.4185,276.8460,25.0792,335.0551,0,U,66778,999,3587,.19750842E-3,.4064E-4,0
KNACKSAT-2,1998-067XZ,2026-07-23T06:03:19.332576,15.63087127,.00074539,51.6273,112.6377,354.3723,5.7186,0,U,67683,999,2591,.59135592E-3,.5483E-3,0
